ECHOSTAR 25             
1 68126U 26045A   26155.61461389  .00000000  00000+0  00000+0 0  9995
2 68126   0.0145 345.0112 0001361  98.5897 280.7309  1.00268969   862
